{"fetched_at":"2026-07-22T07:09:57.229Z","source":"https://celestrak.org/NORAD/elements/gp.php?NAME=O3B&FORMAT=JSON","constellation":"o3b-mpower","records":[{"OBJECT_NAME":"O3B MPOWER F1","OBJECT_ID":"2022-174A","EPOCH":"2026-07-21T14:56:10.352256","CLASSIFICATION_TYPE":"U","MEAN_MOTION":5.00114763,"ECCENTRICITY":0.00066771,"INCLINATION":0.0486,"RA_OF_ASC_NODE":338.93,"ARG_OF_PERICENTER":151.1754,"MEAN_ANOMALY":45.8874,"EPHEMERIS_TYPE":0,"NORAD_CAT_ID":54755,"ELEMENT_SET_NO":999,"REV_AT_EPOCH":6708,"BSTAR":0,"MEAN_MOTION_DOT":-2.4e-7,"MEAN_MOTION_DDOT":0},{"OBJECT_NAME":"O3B MPOWER F2","OBJECT_ID":"2022-174B","EPOCH":"2026-07-21T11:47:33.812448","CLASSIFICATION_TYPE":"U","MEAN_MOTION":5.00114887,"ECCENTRICITY":0.00057765,"INCLINATION":0.0445,"RA_OF_ASC_NODE":339.7,"ARG_OF_PERICENTER":134.4523,"MEAN_ANOMALY":245.9055,"EPHEMERIS_TYPE":0,"NORAD_CAT_ID":54756,"ELEMENT_SET_NO":999,"REV_AT_EPOCH":6716,"BSTAR":0,"MEAN_MOTION_DOT":-2.4e-7,"MEAN_MOTION_DDOT":0},{"OBJECT_NAME":"O3B MPOWER F4","OBJECT_ID":"2023-059A","EPOCH":"2026-07-21T08:32:12.012576","CLASSIFICATION_TYPE":"U","MEAN_MOTION":5.00115394,"ECCENTRICITY":0.0007739,"INCLINATION":0.0628,"RA_OF_ASC_NODE":348.9285,"ARG_OF_PERICENTER":133.4989,"MEAN_ANOMALY":237.6448,"EPHEMERIS_TYPE":0,"NORAD_CAT_ID":56367,"ELEMENT_SET_NO":999,"REV_AT_EPOCH":6031,"BSTAR":0,"MEAN_MOTION_DOT":-2.4e-7,"MEAN_MOTION_DDOT":0},{"OBJECT_NAME":"O3B MPOWER F3","OBJECT_ID":"2023-059B","EPOCH":"2026-07-21T14:07:44.021280","CLASSIFICATION_TYPE":"U","MEAN_MOTION":5.00116485,"ECCENTRICITY":0.00066497,"INCLINATION":0.0635,"RA_OF_ASC_NODE":348.0449,"ARG_OF_PERICENTER":128.0532,"MEAN_ANOMALY":243.9678,"EPHEMERIS_TYPE":0,"NORAD_CAT_ID":56368,"ELEMENT_SET_NO":999,"REV_AT_EPOCH":5644,"BSTAR":0,"MEAN_MOTION_DOT":-2.4e-7,"MEAN_MOTION_DDOT":0},{"OBJECT_NAME":"O3B MPOWER F5","OBJECT_ID":"2023-175A","EPOCH":"2026-07-21T11:45:20.202624","CLASSIFICATION_TYPE":"U","MEAN_MOTION":5.00115905,"ECCENTRICITY":0.00055907,"INCLINATION":0.0531,"RA_OF_ASC_NODE":8.5295,"ARG_OF_PERICENTER":129.6546,"MEAN_ANOMALY":221.856,"EPHEMERIS_TYPE":0,"NORAD_CAT_ID":58346,"ELEMENT_SET_NO":999,"REV_AT_EPOCH":5115,"BSTAR":0,"MEAN_MOTION_DOT":-2.4e-7,"MEAN_MOTION_DDOT":0},{"OBJECT_NAME":"O3B MPOWER F6","OBJECT_ID":"2023-175B","EPOCH":"2026-07-21T09:22:11.147520","CLASSIFICATION_TYPE":"U","MEAN_MOTION":5.00115743,"ECCENTRICITY":0.00044321,"INCLINATION":0.0545,"RA_OF_ASC_NODE":0.2233,"ARG_OF_PERICENTER":118.6448,"MEAN_ANOMALY":241.1737,"EPHEMERIS_TYPE":0,"NORAD_CAT_ID":58347,"ELEMENT_SET_NO":999,"REV_AT_EPOCH":5006,"BSTAR":0,"MEAN_MOTION_DOT":-2.4e-7,"MEAN_MOTION_DDOT":0},{"OBJECT_NAME":"O3B MPOWER F7","OBJECT_ID":"2024-244A","EPOCH":"2026-07-21T06:09:58.051296","CLASSIFICATION_TYPE":"U","MEAN_MOTION":5.00115377,"ECCENTRICITY":0.00059252,"INCLINATION":0.0655,"RA_OF_ASC_NODE":341.705,"ARG_OF_PERICENTER":133.5803,"MEAN_ANOMALY":244.7734,"EPHEMERIS_TYPE":0,"NORAD_CAT_ID":62362,"ELEMENT_SET_NO":999,"REV_AT_EPOCH":2823,"BSTAR":0,"MEAN_MOTION_DOT":-2.4e-7,"MEAN_MOTION_DDOT":0},{"OBJECT_NAME":"O3B MPOWER F8","OBJECT_ID":"2024-244B","EPOCH":"2026-07-21T10:10:13.397952","CLASSIFICATION_TYPE":"U","MEAN_MOTION":5.001151,"ECCENTRICITY":0.00056873,"INCLINATION":0.0152,"RA_OF_ASC_NODE":11.2341,"ARG_OF_PERICENTER":97.209,"MEAN_ANOMALY":251.6161,"EPHEMERIS_TYPE":0,"NORAD_CAT_ID":62363,"ELEMENT_SET_NO":999,"REV_AT_EPOCH":2258,"BSTAR":0,"MEAN_MOTION_DOT":-2.4e-7,"MEAN_MOTION_DDOT":0},{"OBJECT_NAME":"O3B MPOWER F9","OBJECT_ID":"2025-153A","EPOCH":"2026-07-21T03:46:26.260896","CLASSIFICATION_TYPE":"U","MEAN_MOTION":5.00115693,"ECCENTRICITY":0.00067896,"INCLINATION":0.0619,"RA_OF_ASC_NODE":4.5945,"ARG_OF_PERICENTER":132.5837,"MEAN_ANOMALY":222.8719,"EPHEMERIS_TYPE":0,"NORAD_CAT_ID":64866,"ELEMENT_SET_NO":999,"REV_AT_EPOCH":2126,"BSTAR":0,"MEAN_MOTION_DOT":-2.4e-7,"MEAN_MOTION_DDOT":0},{"OBJECT_NAME":"O3B MPOWER F10","OBJECT_ID":"2025-153B","EPOCH":"2026-07-21T12:33:15.299136","CLASSIFICATION_TYPE":"U","MEAN_MOTION":5.00114937,"ECCENTRICITY":0.00025836,"INCLINATION":0.0589,"RA_OF_ASC_NODE":1.2576,"ARG_OF_PERICENTER":246.5022,"MEAN_ANOMALY":112.2102,"EPHEMERIS_TYPE":0,"NORAD_CAT_ID":64867,"ELEMENT_SET_NO":999,"REV_AT_EPOCH":2375,"BSTAR":0,"MEAN_MOTION_DOT":-2.4e-7,"MEAN_MOTION_DDOT":0}]}
