{"epoch":1784710044,"count":18256,"objects":[{"id":"54755","name":"SES MPOWER-A F1","type":"PAYLOAD","l1":"1 54755U 22174A   26202.62234204 -.00000024  00000-0  00000-0 0  9994","l2":"2 54755   0.0486 338.9300 0006677 151.1754  45.8874  5.00114763 67086"},{"id":"54756","name":"SES MPOWER-A F2","type":"PAYLOAD","l1":"1 54756U 22174B   26202.49136357 -.00000024  00000-0  00000-0 0  9990","l2":"2 54756   0.0445 339.7000 0005777 134.4523 245.9055  5.00114887 67166"},{"id":"56367","name":"O3BF04","type":"PAYLOAD","l1":"1 56367U 23059A   26202.35569459 -.00000024  00000-0  00000-0 0  9991","l2":"2 56367   0.0628 348.9285 0007739 133.4989 237.6448  5.00115394 60319"},{"id":"56368","name":"O3BF03","type":"PAYLOAD","l1":"1 56368U 23059B   26202.58870395 -.00000024  00000-0  00000-0 0  9991","l2":"2 56368   0.0635 348.0449 0006650 128.0532 243.9678  5.00116485 56442"},{"id":"58346","name":"O3B MPOWER F05","type":"PAYLOAD","l1":"1 58346U 23175A   26202.48981716 -.00000024  00000-0  00000-0 0  9997","l2":"2 58346   0.0531   8.5295 0005591 129.6546 221.8560  5.00115905 51151"},{"id":"58347","name":"O3B MPOWER F06","type":"PAYLOAD","l1":"1 58347U 23175B   26202.39040680 -.00000024  00000-0  00000-0 0  9994","l2":"2 58347   0.0545   0.2233 0004432 118.6448 241.1737  5.00115743 50060"},{"id":"62362","name":"O3B MPOWER F7","type":"PAYLOAD","l1":"1 62362U 24244A   26202.25692189 -.00000024  00000-0  00000-0 0  9996","l2":"2 62362   0.0655 341.7050 0005925 133.5803 244.7734  5.00115377 28236"},{"id":"62363","name":"O3B MPOWER F8","type":"PAYLOAD","l1":"1 62363U 24244B   26202.42376618 -.00000024  00000-0  00000-0 0  9992","l2":"2 62363   0.0152  11.2341 0005687  97.2090 251.6161  5.00115100 22587"},{"id":"64866","name":"O3B MPOWER F09","type":"PAYLOAD","l1":"1 64866U 25153A   26202.15724839 -.00000024  00000-0  00000-0 0  9994","l2":"2 64866   0.0619   4.5945 0006790 132.5837 222.8719  5.00115693 21268"},{"id":"64867","name":"O3B MPOWER F10","type":"PAYLOAD","l1":"1 64867U 25153B   26202.52309374 -.00000024  00000-0  00000-0 0  9999","l2":"2 64867   0.0589   1.2576 0002584 246.5022 112.2102  5.00114937 23752"}]}